NORAD_CAT_ID,OBJECT_NAME,OBJECT_TYPE,EPOCH,MEAN_MOTION,ECCENTRICITY,INCLINATION,RA_OF_ASC_NODE,ARG_OF_PERICENTER,MEAN_ANOMALY,BSTAR,MEAN_MOTION_DOT,MEAN_MOTION_DDOT,TLE_LINE0,TLE_LINE1,TLE_LINE2,SEMIMAJOR_AXIS,PERIOD,APOGEE,PERIGEE,DECAYED
55934.0,STARLINK-5927,PAYLOAD,2023-11-17 12:36:12,14.98334413,0.0002806,70.0001,250.316,275.9495,84.1344,-0.00016002,-2.002e-05,0.0,0 STARLINK-5927,1 55934U 23037W   23321.52514618 -.00002002  00000-0 -16002-3 0  9992,2 55934  70.0001 250.3160 0002806 275.9495  84.1344 14.98334413 37688,6950.179,96.107,573.994,570.094,0.0
55934.0,STARLINK-5927,PAYLOAD,2023-11-18 12:38:14,14.98319926,0.000246,70.0011,247.7921,292.3537,67.7362,0.00010768,1.192e-05,0.0,0 STARLINK-5927,1 55934U 23037W   23322.52655669  .00001192  00000-0  10768-3 0  9995,2 55934  70.0011 247.7921 0002460 292.3537  67.7362 14.98319926 38174,6950.224,96.108,573.799,570.379,0.0
55934.0,STARLINK-5927,PAYLOAD,2023-11-19 03:03:26,14.98328507,0.000206,70.0018,246.2772,282.4647,77.6281,0.00010564,1.168e-05,0.0,0 STARLINK-5927,1 55934U 23037W   23323.12739230  .00001168  00000-0  10564-3 0  9996,2 55934  70.0018 246.2772 0002060 282.4647  77.6281 14.98328507 38262,6950.198,96.107,573.494,570.631,0.0
55934.0,STARLINK-5927,PAYLOAD,2023-11-19 04:39:35,14.98325073,0.0002167,70.0026,246.108,309.2405,50.8562,8.3411e-05,9.02e-06,0.0,0 STARLINK-5927,1 55934U 23037W   23323.19415766  .00000902  00000-0  83411-4 0  9995,2 55934  70.0026 246.1080 0002167 309.2405  50.8562 14.98325073 38271,6950.208,96.107,573.579,570.567,0.0
55934.0,STARLINK-5927,PAYLOAD,2023-11-19 12:40:15,14.98328665,0.0002414,70.001,245.2669,284.7288,75.3604,3.6872e-05,3.47e-06,0.0,0 STARLINK-5927,1 55934U 23037W   23323.52795375  .00000347  00000-0  36872-4 0  9991,2 55934  70.0010 245.2669 0002414 284.7288  75.3604 14.98328665 37984,6950.197,96.107,573.74,570.384,0.0
55934.0,STARLINK-5927,PAYLOAD,2023-11-19 19:04:47,14.9833325,0.00025,70.0025,244.5929,278.4269,81.6607,-1.9753e-05,-3.29e-06,0.0,0 STARLINK-5927,1 55934U 23037W   23323.79499156 -.00000329  00000-0 -19753-4 0  9999,2 55934  70.0025 244.5929 0002500 278.4269  81.6607 14.98333250 38368,6950.183,96.107,573.785,570.31,0.0
55934.0,STARLINK-5927,PAYLOAD,2023-11-19 22:17:03,14.98332451,0.0002521,70.0014,244.2576,280.1601,79.9274,-3.7925e-05,-5.45e-06,0.0,0 STARLINK-5927,1 55934U 23037W   23323.92851220 -.00000545  00000-0 -37925-4 0  9999,2 55934  70.0014 244.2576 0002521 280.1601  79.9274 14.98332451 38041,6950.185,96.107,573.802,570.298,0.0
55934.0,STARLINK-5927,PAYLOAD,2023-11-20 03:05:28,14.98321223,0.0002133,70.0023,243.7525,276.0092,84.0824,-7.0217e-05,-9.3e-06,0.0,0 STARLINK-5927,1 55934U 23037W   23324.12879877 -.00000930  00000-0 -70217-4 0  9999,2 55934  70.0023 243.7525 0002133 276.0092  84.0824 14.98321223 38410,6950.22,96.108,573.568,570.603,0.0
55934.0,STARLINK-5927,PAYLOAD,2023-11-20 04:41:35,14.98327531,0.0002124,70.0024,243.5848,276.018,84.0737,5.2708e-06,-3e-07,0.0,0 STARLINK-5927,1 55934U 23037W   23324.19555328 -.00000030  00000-0  52708-5 0  9994,2 55934  70.0024 243.5848 0002124 276.0180  84.0737 14.98327531 38427,6950.201,96.107,573.542,570.589,0.0
55934.0,STARLINK-5927,PAYLOAD,2023-11-20 22:19:04,14.98333222,0.000242,70.0013,241.7328,274.8083,85.2799,-1.2218e-06,-1.07e-06,0.0,0 STARLINK-5927,1 55934U 23037W   23324.92990772 -.00000107  00000-0 -12218-5 0  9999,2 55934  70.0013 241.7328 0002420 274.8083  85.2799 14.98333222 38194,6950.183,96.107,573.73,570.366,0.0
55934.0,STARLINK-5927,PAYLOAD,2023-11-21 03:07:27,14.98339949,0.0002638,70.0004,241.2269,279.4966,80.5894,5.1154e-05,5.18e-06,0.0,0 STARLINK-5927,1 55934U 23037W   23325.13018191  .00000518  00000-0  51154-4 0  9994,2 55934  70.0004 241.2269 0002638 279.4966  80.5894 14.98339949 38562,6950.162,96.106,573.861,570.194,0.0
55934.0,STARLINK-5927,PAYLOAD,2023-11-21 04:43:35,14.98339921,0.0002644,70.0004,241.0584,278.3647,81.7212,3.277e-05,2.98e-06,0.0,0 STARLINK-5927,1 55934U 23037W   23325.19694188  .00000298  00000-0  32770-4 0  9994,2 55934  70.0004 241.0584 0002644 278.3647  81.7212 14.98339921 38232,6950.162,96.106,573.865,570.19,0.0
55934.0,STARLINK-5927,PAYLOAD,2023-11-21 20:44:57,14.98326876,0.0002719,70.0003,239.3758,274.5317,85.5531,-4.4514e-05,-6.24e-06,0.0,0 STARLINK-5927,1 55934U 23037W   23325.86455065 -.00000624  00000-0 -44514-4 0  9991,2 55934  70.0003 239.3758 0002719 274.5317  85.5531 14.98326876 38331,6950.203,96.107,573.957,570.178,0.0
55934.0,STARLINK-5927,PAYLOAD,2023-11-22 03:09:28,14.98336652,0.0002828,69.9995,238.7018,272.2627,87.8208,1.7907e-05,1.21e-06,0.0,0 STARLINK-5927,1 55934U 23037W   23326.13158226  .00000121  00000-0  17907-4 0  9997,2 55934  69.9995 238.7018 0002828 272.2627  87.8208 14.98336652 38711,6950.172,96.107,574.003,570.072,0.0
55934.0,STARLINK-5927,PAYLOAD,2023-11-22 04:45:36,14.98338199,0.000283,69.9998,238.5339,272.8699,87.2136,3.6029e-05,3.37e-06,0.0,0 STARLINK-5927,1 55934U 23037W   23326.19834028  .00000337  00000-0  36029-4 0  9999,2 55934  69.9998 238.5339 0002830 272.8699  87.2136 14.98338199 38381,6950.168,96.106,573.999,570.066,0.0
55934.0,STARLINK-5927,PAYLOAD,2023-11-22 19:10:49,14.98331262,0.0002916,69.9994,237.0193,268.4698,91.6127,-5.2119e-05,-7.15e-06,0.0,0 STARLINK-5927,1 55934U 23037W   23326.79918508 -.00000715  00000-0 -52119-4 0  9991,2 55934  69.9994 237.0193 0002916 268.4698  91.6127 14.98331262 38815,6950.189,96.107,574.081,570.027,0.0
55934.0,STARLINK-5927,PAYLOAD,2023-11-22 20:46:57,14.98332175,0.0002842,69.9997,236.8504,271.0158,89.0675,-3.6358e-05,-5.27e-06,0.0,0 STARLINK-5927,1 55934U 23037W   23326.86594453 -.00000527  00000-0 -36358-4 0  9996,2 55934  69.9997 236.8504 0002842 271.0158  89.0675 14.98332175 38486,6950.186,96.107,574.026,570.076,0.0
55934.0,STARLINK-5927,PAYLOAD,2023-11-23 03:11:29,14.98336876,0.0002543,70.0007,236.1786,265.2393,94.8475,3.9304e-05,3.76e-06,0.0,0 STARLINK-5927,1 55934U 23037W   23327.13297865  .00000376  00000-0  39304-4 0  9998,2 55934  70.0007 236.1786 0002543 265.2393  94.8475 14.98336876 38866,6950.172,96.107,573.804,570.269,0.0
55934.0,STARLINK-5927,PAYLOAD,2023-11-23 19:12:51,14.98322516,0.0002568,70.0002,234.4943,260.0105,100.0765,-5.3558e-05,-7.32e-06,0.0,0 STARLINK-5927,1 55934U 23037W   23327.80059052 -.00000732  00000-0 -53558-4 0  9991,2 55934  70.0002 234.4943 0002568 260.0105 100.0765 14.98322516 38967,6950.216,96.107,573.866,570.296,0.0
55934.0,STARLINK-5927,PAYLOAD,2023-11-23 22:25:07,14.9832064,0.0002795,69.9993,234.1569,261.6276,98.4566,-8.2128e-05,-1.073e-05,0.0,0 STARLINK-5927,1 55934U 23037W   23327.93411298 -.00001073  00000-0 -82128-4 0  9993,2 55934  69.9993 234.1569 0002795 261.6276  98.4566 14.98320640 38642,6950.222,96.108,574.029,570.144,0.0
55934.0,STARLINK-5927,PAYLOAD,2023-11-24 03:13:31,14.98319421,0.0002888,69.9996,233.6527,266.2367,93.8462,-8.5101e-05,-1.108e-05,0.0,0 STARLINK-5927,1 55934U 23037W   23328.13439519 -.00001108  00000-0 -85101-4 0  9995,2 55934  69.9996 233.6527 0002888 266.2367  93.8462 14.98319421 38670,6950.226,96.108,574.098,570.083,0.0
55934.0,STARLINK-5927,PAYLOAD,2023-11-24 19:14:52,14.98325731,0.0002464,70.0015,231.9724,239.6321,120.4595,-4.1687e-05,-5.9e-06,0.0,0 STARLINK-5927,1 55934U 23037W   23328.80199213 -.00000590  00000-0 -41687-4 0  9998,2 55934  70.0015 231.9724 0002464 239.6321 120.4595 14.98325731 39114,6950.206,96.107,573.784,570.359,0.0
55934.0,STARLINK-5927,PAYLOAD,2023-11-24 22:27:08,14.98327644,0.0002431,70.0011,231.6349,238.0981,121.9942,-1.2516e-05,-2.42e-06,0.0,0 STARLINK-5927,1 55934U 23037W   23328.93551029 -.00000242  00000-0 -12516-4 0  9992,2 55934  70.0011 231.6349 0002431 238.0981 121.9942 14.98327644 38799,6950.2,96.107,573.755,570.376,0.0
55934.0,STARLINK-5927,PAYLOAD,2023-11-25 03:15:31,14.9833455,0.0002142,70.0008,231.1292,252.3746,107.718,5.5774e-05,5.73e-06,0.0,0 STARLINK-5927,1 55934U 23037W   23329.13578634  .00000573  00000-0  55774-4 0  9994,2 55934  70.0008 231.1292 0002142 252.3746 107.7180 14.98334550 39166,6950.179,96.107,573.533,570.555,0.0
55934.0,STARLINK-5927,PAYLOAD,2023-11-25 22:29:08,14.98332846,0.0002332,70.0004,229.1083,244.2859,115.806,0.00024957,2.886e-05,0.0,0 STARLINK-5927,1 55934U 23037W   23329.93689970  .00002886  00000-0  24957-3 0  9995,2 55934  70.0004 229.1083 0002332 244.2859 115.8060 14.98332846 38941,6950.184,96.107,573.67,570.428,0.0
55934.0,STARLINK-5927,PAYLOAD,2023-11-26 03:17:31,14.98345852,0.0002168,70.0007,228.6041,270.7273,89.3638,0.00036806,4.303e-05,0.0,0 STARLINK-5927,1 55934U 23037W   23330.13716900  .00004303  00000-0  36806-3 0  9995,2 55934  70.0007 228.6041 0002168 270.7273  89.3638 14.98345852 39312,6950.144,96.106,573.516,570.502,0.0
55934.0,STARLINK-5927,PAYLOAD,2023-11-26 19:18:54,14.9832089,0.0002531,70.0005,226.9242,259.5733,100.5141,-0.00010265,-1.317e-05,0.0,0 STARLINK-5927,1 55934U 23037W   23330.80479633 -.00001317  00000-0 -10265-3 0  9993,2 55934  70.0005 226.9242 0002531 259.5733 100.5141 14.98320890 39415,6950.221,96.108,573.845,570.327,0.0
55934.0,STARLINK-5927,PAYLOAD,2023-11-26 22:31:11,14.9831233,0.0002457,69.9999,226.5833,262.9812,97.1068,-0.00019054,-2.365e-05,0.0,0 STARLINK-5927,1 55934U 23037W   23330.93832486 -.00002365  00000-0 -19054-3 0  9995,2 55934  69.9999 226.5833 0002457 262.9812  97.1068 14.98312330 39092,6950.248,96.108,573.82,570.405,0.0
55934.0,STARLINK-5927,PAYLOAD,2023-11-27 03:19:35,14.98309729,0.0002278,70.0009,226.08,243.4619,116.6307,-0.00020707,-2.561e-05,0.0,0 STARLINK-5927,1 55934U 23037W   23331.13860842 -.00002561  00000-0 -20707-3 0  9990,2 55934  70.0009 226.0800 0002278 243.4619 116.6307 14.98309729 39468,6950.256,96.108,573.704,570.537,0.0
55934.0,STARLINK-5927,PAYLOAD,2023-11-27 19:20:55,14.98367836,0.0002303,70.0001,224.396,260.5414,99.5485,-0.00075217,-9.065e-05,0.0,0 STARLINK-5927,1 55934U 23037W   23331.80619294 -.00009065  00000-0 -75217-3 0  9999,2 55934  70.0001 224.3960 0002303 260.5414  99.5485 14.98367836 39560,6950.076,96.105,573.541,570.34,0.0
